FLOCK 3P-85             
1 41983U 17008AM  18034.84492638  .00001834  00000-0  78745-4 0  9992
2 41983  97.4699 100.5807 0009904 105.8513 254.3816 15.23942062 53648
FLOCK 3P-79             
1 41984U 17008AN  18034.84627641  .00000915  00000-0  40895-4 0  9991
2 41984  97.4700 100.5776 0009666 105.2877 254.9429 15.23862028 53648
FLOCK 3P-86             
1 41985U 17008AP  18034.84793434  .00001673  00000-0  72280-4 0  9991
2 41985  97.4699 100.5696 0009617 104.7176 255.5127 15.23854441 53630
FLOCK 3P-36             
1 41986U 17008AQ  18034.39037357  .00001626  00000-0  70317-4 0  9994
2 41986  97.4684 100.0270 0009389 103.8710 256.3572 15.23869666 53052
FLOCK 3P-30             
1 41987U 17008AR  18033.85676983  .00002600  00000-0  11058-3 0  9998
2 41987  97.4681  99.5153 0009276 106.9692 253.2563 15.23899477 53442
FLOCK 3P-34             
1 41988U 17008AS  18034.13090356  .00001081  00000-0  47765-4 0  9992
2 41988  97.4679  99.7425 0009446 102.8812 257.3480 15.23867183 53017
FLOCK 3P-35             
1 41989U 17008AT  18034.85673301  .00002401  00000-0  10242-3 0  9995
2 41989  97.4673 100.4547 0009615 100.7098 259.5222 15.23862402 53127
FLOCK 3P-33             
1 41990U 17008AU  18034.71961928  .00001557  00000-0  67470-4 0  9994
2 41990  97.4677 100.3388 0009334 102.1051 258.1232 15.23869520 53100
LEMUR-2-SATCHMO         
1 41991U 17008AV  18033.84388952  .00000914  00000-0  41899-4 0  9991
2 41991  97.4667  99.1929 0009457 106.8351 253.3924 15.22991836 52958
LEMUR-2-MIA-GRACE       
1 41992U 17008AW  18034.44007533  .00001347  00000-0  59425-4 0  9997
2 41992  97.4672  99.9409 0009359 105.1486 255.0787 15.23492866 53056
LEMUR-2-SMITA-SHARAD    
1 41993U 17008AX  18034.40788674  .00000981  00000-0  44512-4 0  9990
2 41993  97.4667  99.8192 0009405 104.8719 255.3560 15.23168861 53042
LEMUR-2-SPIRE-MINIONS   
1 41994U 17008AY  18034.77806104  .00001280  00000-0  56659-4 0  9998
2 41994  97.4667 100.2442 0009405 103.4946 256.7340 15.23451625 53106
LEMUR-2-RDEATON         
1 41995U 17008AZ  18034.79332921  .00000949  00000-0  43089-4 0  9996
2 41995  97.4668 100.2276 0010379 115.3180 244.9133 15.23222688 53785
LEMUR-2-NOGUECORREIG    
1 41996U 17008BA  18034.82952345  .00001127  00000-0  50247-4 0  9992
2 41996  97.4676 100.3451 0010279 115.7468 244.4831 15.23454370 53014
LEMUR-2-JOBANPUTRA      
1 41997U 17008BB  18033.81901467  .00001262  00000-0  55688-4 0  9994
2 41997  97.4679  99.4011 0010245 118.6343 241.5926 15.23582541 52952
LEMUR-2-TACHIKOMA       
1 41998U 17008BC  18034.14656883  .00000990  00000-0  44954-4 0  9992
2 41998  97.4667  99.5576 0010259 117.6387 242.5893 15.23119989 52922
BGUSAT                  
1 41999U 17008BD  18034.50549321  .00001743  00000-0  74932-4 0  9997
2 41999  97.4682 100.1870 0010112 117.5112 242.7154 15.23972850 53061
DIDO-2                  
1 42000U 17008BE  18034.43193947  .00000769  00000-0  35804-4 0  9994
2 42000  97.4662  99.7805 0010244 117.3383 242.8898 15.22907725 53040
FLOCK 3P-49             
1 42001U 17008BF  18033.91905232  .00002286  00000-0  97640-4 0  9997
2 42001  97.4678  99.5763 0009834 119.5613 240.6605 15.23869113 53504
FLOCK 3P-67             
1 42002U 17008BG  18033.91597089  .00001866  00000-0  79819-4 0  9996
2 42002  97.4678  99.5719 0009676 118.6496 241.5715 15.24050268 53662
FLOCK 3P-68             
1 42003U 17008BH  18034.71337289  .00000956  00000-0  42569-4 0  9991
2 42003  97.4676 100.3379 0009927 115.1743 245.0525 15.23871136 53426
FLOCK 3P-41             
1 42004U 17008BJ  18033.91399576  .00000755  00000-0  34252-4 0  9997
2 42004  97.4678  99.5624 0009693 119.4606 240.7599 15.23844705 53500
FLOCK 3P-45             
1 42005U 17008BK  18033.84554432  .00001882  00000-0  80463-4 0  9991
2 42005  97.4678  99.5123 0009541 119.8365 240.3821 15.24060809 53648
FLOCK 3P-48             
1 42006U 17008BL  18034.83667211  .00002550  00000-0  10857-3 0  9994
2 42006  97.4678 100.4946 0009564 117.4972 242.7239 15.23872587 53582
FLOCK 3P-43             
1 42007U 17008BM  18033.91949375  .00000640  00000-0  29611-4 0  9994
2 42007  97.4681  99.5635 0009514 120.5632 239.6544 15.23723732 53663
FLOCK 3P-42             
1 42008U 17008BN  18034.83489353  .00001017  00000-0  45097-4 0  9997
2 42008  97.4675 100.4745 0009549 117.3868 242.8342 15.23870026 53722
FLOCK 3P-61             
1 42009U 17008BP  18033.91461856  .00002583  00000-0  10984-3 0  9999
2 42009  97.4675  99.5680 0009421 122.0555 238.1598 15.23898302 53632
FLOCK 3P-40             
1 42010U 17008BQ  18033.84280711  .00002571  00000-0  10935-3 0  9995
2 42010  97.4669  99.4850 0009337 122.9485 237.2651 15.23896830 52882
FLOCK 3P-16             
1 42011U 17008BR  18034.15991215  .00002534  00000-0  10795-3 0  9992
2 42011  97.4668  99.8301 0008988 122.1922 238.0188 15.23864898 52878
FLOCK 3P-14             
1 42012U 17008BS  18034.48706468  .00001373  00000-0  59752-4 0  9990
2 42012  97.4682 100.1807 0009233 123.4207 236.7915 15.23918735 53544
FLOCK 3P-53             
1 42013U 17008BT  18034.16320758  .00000777  00000-0  35163-4 0  9997
2 42013  97.4669  99.8073 0008991 121.9557 238.2555 15.23855803 53497
FLOCK 3P-54             
1 42014U 17008BU  18033.90392963  .00002528  00000-0  10762-3 0  9999
2 42014  97.4671  99.5621 0008945 124.1703 236.0383 15.23887380 53663
PEASSS                  
1 42015U 17008BV  18034.41302236  .00000947  00000-0  42458-4 0  9992
2 42015  97.4657 100.0677 0008030 122.9053 237.2958 15.23650957 53542
AL-FARABI 1             
1 42016U 17008BW  18034.83195034  .00001164  00000-0  51052-4 0  9997
2 42016  97.4661 100.5953 0007940 122.2156 237.9852 15.23980122 53737
NAYIF-1 (EO-88)         
1 42017U 17008BX  18033.90893996  .00001198  00000-0  52399-4 0  9999
2 42017  97.4661  99.6814 0007855 125.0026 235.1950 15.23998453 53616
FLOCK 3P-23             
1 42018U 17008BY  18034.42796336  .00002375  00000-0  10126-3 0  9997
2 42018  97.4665  99.9197 0010321 100.4941 259.7459 15.23892905 52501
FLOCK 3P-76             
1 42019U 17008BZ  18034.46059046  .00002242  00000-0  95832-4 0  9993
2 42019  97.4700 100.1858 0010077 105.2230 255.0122 15.23865837 53571
FLOCK 3P-69             
1 42020U 17008CA  18033.93371921  .00002517  00000-0  10719-3 0  9990
2 42020  97.4700  99.6634 0009928 106.0034 254.2297 15.23872278 52380
FLOCK 3P-84             
1 42021U 17008CB  18034.46928515  .00002366  00000-0  10088-3 0  9998
2 42021  97.4694 100.1527 0010294 104.1466 256.0915 15.23889898 53584
FLOCK 3P-59             
1 42022U 17008CC  18034.86027132  .00001881  00000-0  80579-4 0  9992
2 42022  97.4675 100.4533 0009654 103.0488 257.1828 15.23992899 52663
FLOCK 3P-32             
1 42023U 17008CD  18034.47384838  .00002351  00000-0  10031-3 0  9997
2 42023  97.4675 100.0545 0009692 101.5426 258.6899 15.23882376 53742
FLOCK 3P-71             
1 42024U 17008CE  18033.90019451  .00002434  00000-0  10375-3 0  9994
2 42024  97.4698  99.5609 0009996 107.2257 253.0075 15.23882427 52520
FLOCK 3P-77             
1 42025U 17008CF  18033.87090106  .00002633  00000-0  11199-3 0  9993
2 42025  97.4699  99.5835 0009954 107.3381 252.8946 15.23874844 53491
FLOCK 3P-80             
1 42026U 17008CG  18033.71958290  .00000938  00000-0  41676-4 0  9994
2 42026  97.4700  99.4732 0009564 107.8932 252.3349 15.23984655 51610
FLOCK 3P-66             
1 42027U 17008CH  18033.85920778  .00002291  00000-0  97815-4 0  9990
2 42027  97.4678  99.5027 0009914 117.4556 242.7690 15.23888350 53609
FLOCK 3P-65             
1 42028U 17008CJ  18034.84227769  .00002314  00000-0  98793-4 0  9993
2 42028  97.4676 100.4854 0009794 114.7921 245.4336 15.23881120 53650
FLOCK 3P-50             
1 42029U 17008CK  18034.83890650  .00000988  00000-0  43928-4 0  9993
2 42029  97.4683 100.5003 0009610 116.4982 243.7242 15.23853190 52976
FLOCK 3P-52             
1 42030U 17008CL  18034.70950566  .00002371  00000-0  10110-3 0  9998
2 42030  97.4675 100.3514 0009690 116.4470 243.7762 15.23893668 53729
FLOCK 3P-46             
1 42031U 17008CM  18034.17926403  .00002602  00000-0  11072-3 0  9998
2 42031  97.4673  99.8245 0009616 118.8563 241.3641 15.23873468 53678
FLOCK 3P-47             
1 42032U 17008CN  18033.91834962  .00002614  00000-0  11121-3 0  9996
2 42032  97.4673  99.5590 0009548 119.9130 240.3057 15.23873221 53481
FLOCK 3P-44             
1 42033U 17008CP  18034.44125130  .00000524  00000-0  24800-4 0  9993
2 42033  97.4682 100.0979 0009610 120.9259 239.2923 15.23704647 52310
FLOCK 3P-64             
1 42034U 17008CQ  18034.50382258  .00002469  00000-0  10515-3 0  9994
2 42034  97.4670 100.1476 0009435 120.1076 240.1097 15.23892216 53746
FLOCK 3P-63             
1 42035U 17008CR  18033.91073771  .00002504  00000-0  10664-3 0  9991
2 42035  97.4670  99.5556 0009394 121.7778 238.4375 15.23878354 51628
FLOCK 3P-62             
1 42036U 17008CS  18034.14547181  .00001896  00000-0  80874-4 0  9993
2 42036  97.4675  99.8618 0009364 122.2980 237.9165 15.24139595 52860
FLOCK 3P-38             
1 42037U 17008CT  18034.43458206  .00002140  00000-0  91583-4 0  9997
2 42037  97.4671 100.0840 0009129 120.9439 239.2696 15.23887894 53688
FLOCK 3P-39             
1 42038U 17008CU  18033.90710152  .00002505  00000-0  10671-3 0  9993
2 42038  97.4668  99.5469 0009335 122.6705 237.5434 15.23871042 53553
FLOCK 3P-15             
1 42039U 17008CV  18033.91194552  .00002661  00000-0  11311-3 0  9990
2 42039  97.4670  99.5547 0009234 122.3738 237.8394 15.23897958 52837
FLOCK 3P-13             
1 42040U 17008CW  18034.17002922  .00001065  00000-0  47230-4 0  9997
2 42040  97.4680  99.8340 0009111 122.4635 237.7484 15.23767545 52865
FLOCK 3P-55             
1 42041U 17008CX  18034.54165871  .00002270  00000-0  96989-4 0  9996
2 42041  97.4672 100.2492 0008916 124.4381 235.7700 15.23872895 53768
